{
  "type": "FeatureCollection",
  "features": [
    {
      "type": "Feature",
      "properties": {
        "norad_id": 37238,
        "name": "INTELSAT 17 (IS-17)",
        "group": "intelsat",
        "lat": -0.023712371109520125,
        "lon": -97.43852388231007,
        "alt_km": 35775.56507073933,
        "timestamp": "2025-12-14T07:33:19.145945+00:00",
        "meta_object_name": "INTELSAT 17 (IS-17)",
        "meta_object_id": "2010-065B",
        "meta_epoch": "2025-12-13T15:28:31.621152",
        "meta_mean_motion": 1.0027154,
        "meta_eccentricity": 0.00024982,
        "meta_inclination": 0.0064,
        "meta_ra_of_asc_node": 323.398,
        "meta_arg_of_pericenter": 302.4861,
        "meta_mean_anomaly": 114.8302,
        "meta_ephemeris_type": 0,
        "meta_classification_type": "U",
        "meta_norad_cat_id": 37238,
        "meta_element_set_no": 999,
        "meta_rev_at_epoch": 5138,
        "meta_bstar": 0,
        "meta_mean_motion_dot": 1.4e-07,
        "meta_mean_motion_ddot": 0,
        "tle_line1": "1 37238U 10065B   25347.64481043  .00000014  00000+0  00000+0 0  9999",
        "tle_line2": "2 37238   0.0064 323.3980 0002498 302.4861 114.8302  1.00271540 51386"
      },
      "geometry": {
        "type": "Point",
        "coordinates": [
          -97.43852388231007,
          -0.023712371109520125
        ]
      }
    },
    {
      "type": "Feature",
      "properties": {
        "norad_id": 37392,
        "name": "INTELSAT 28 (IS-28)",
        "group": "intelsat",
        "lat": 1.3043569167743774,
        "lon": 164.833857231864,
        "alt_km": 35788.944873639,
        "timestamp": "2025-12-14T07:33:19.145970+00:00",
        "meta_object_name": "INTELSAT 28 (IS-28)",
        "meta_object_id": "2011-016A",
        "meta_epoch": "2025-12-13T11:35:08.971008",
        "meta_mean_motion": 1.00273036,
        "meta_eccentricity": 0.00037543,
        "meta_inclination": 1.3266,
        "meta_ra_of_asc_node": 85.0457,
        "meta_arg_of_pericenter": 181.9304,
        "meta_mean_anomaly": 317.5438,
        "meta_ephemeris_type": 0,
        "meta_classification_type": "U",
        "meta_norad_cat_id": 37392,
        "meta_element_set_no": 999,
        "meta_rev_at_epoch": 5142,
        "meta_bstar": 0,
        "meta_mean_motion_dot": -2.1e-06,
        "meta_mean_motion_ddot": 0,
        "tle_line1": "1 37392U 11016A   25347.48274272 -.00000210  00000+0  00000+0 0  9992",
        "tle_line2": "2 37392   1.3266  85.0457 0003754 181.9304 317.5438  1.00273036 51423"
      },
      "geometry": {
        "type": "Point",
        "coordinates": [
          164.833857231864,
          1.3043569167743774
        ]
      }
    },
    {
      "type": "Feature",
      "properties": {
        "norad_id": 37834,
        "name": "INTELSAT 18 (IS-18)",
        "group": "intelsat",
        "lat": 0.029041456953271774,
        "lon": 16.570938751503586,
        "alt_km": 35787.71183217426,
        "timestamp": "2025-12-14T07:33:19.145996+00:00",
        "meta_object_name": "INTELSAT 18 (IS-18)",
        "meta_object_id": "2011-056A",
        "meta_epoch": "2025-12-13T13:21:31.838400",
        "meta_mean_motion": 1.00272159,
        "meta_eccentricity": 0.0001828,
        "meta_inclination": 0.0175,
        "meta_ra_of_asc_node": 319.5455,
        "meta_arg_of_pericenter": 313.7128,
        "meta_mean_anomaly": 189.6056,
        "meta_ephemeris_type": 0,
        "meta_classification_type": "U",
        "meta_norad_cat_id": 37834,
        "meta_element_set_no": 999,
        "meta_rev_at_epoch": 5195,
        "meta_bstar": 0,
        "meta_mean_motion_dot": 6.8e-07,
        "meta_mean_motion_ddot": 0,
        "tle_line1": "1 37834U 11056A   25347.55661850  .00000068  00000+0  00000+0 0  9997",
        "tle_line2": "2 37834   0.0175 319.5455 0001828 313.7128 189.6056  1.00272159 51958"
      },
      "geometry": {
        "type": "Point",
        "coordinates": [
          16.570938751503586,
          0.029041456953271774
        ]
      }
    },
    {
      "type": "Feature",
      "properties": {
        "norad_id": 38098,
        "name": "INTELSAT 22 (IS-22)",
        "group": "intelsat",
        "lat": -0.01922152467469394,
        "lon": -91.32681098174298,
        "alt_km": 35778.87883305119,
        "timestamp": "2025-12-14T07:33:19.146011+00:00",
        "meta_object_name": "INTELSAT 22 (IS-22)",
        "meta_object_id": "2012-011A",
        "meta_epoch": "2025-12-13T15:30:16.452864",
        "meta_mean_motion": 1.0027125,
        "meta_eccentricity": 0.00017364,
        "meta_inclination": 0.0007,
        "meta_ra_of_asc_node": 357.2619,
        "meta_arg_of_pericenter": 270.1968,
        "meta_mean_anomaly": 119.804,
        "meta_ephemeris_type": 0,
        "meta_classification_type": "U",
        "meta_norad_cat_id": 38098,
        "meta_element_set_no": 999,
        "meta_rev_at_epoch": 532,
        "meta_bstar": 0,
        "meta_mean_motion_dot": -4.3e-07,
        "meta_mean_motion_ddot": 0,
        "tle_line1": "1 38098U 12011A   25347.64602376 -.00000043  00000+0  00000+0 0  9994",
        "tle_line2": "2 38098   0.0007 357.2619 0001736 270.1968 119.8040  1.00271250  5321"
      },
      "geometry": {
        "type": "Point",
        "coordinates": [
          -91.32681098174298,
          -0.01922152467469394
        ]
      }
    },
    {
      "type": "Feature",
      "properties": {
        "norad_id": 38356,
        "name": "INTELSAT 19 (IS-19)",
        "group": "intelsat",
        "lat": 0.00379542627779911,
        "lon": 2.609647728847413,
        "alt_km": 35786.09243554322,
        "timestamp": "2025-12-14T07:33:19.146024+00:00",
        "meta_object_name": "INTELSAT 19 (IS-19)",
        "meta_object_id": "2012-030A",
        "meta_epoch": "2025-12-13T14:14:23.719776",
        "meta_mean_motion": 1.00272639,
        "meta_eccentricity": 0.00033632,
        "meta_inclination": 0.0102,
        "meta_ra_of_asc_node": 11.2403,
        "meta_arg_of_pericenter": 260.4104,
        "meta_mean_anomaly": 190.485,
        "meta_ephemeris_type": 0,
        "meta_classification_type": "U",
        "meta_norad_cat_id": 38356,
        "meta_element_set_no": 999,
        "meta_rev_at_epoch": 4859,
        "meta_bstar": 0,
        "meta_mean_motion_dot": -4.1e-07,
        "meta_mean_motion_ddot": 0,
        "tle_line1": "1 38356U 12030A   25347.59333009 -.00000041  00000+0  00000+0 0  9998",
        "tle_line2": "2 38356   0.0102  11.2403 0003363 260.4104 190.4850  1.00272639 48596"
      },
      "geometry": {
        "type": "Point",
        "coordinates": [
          2.609647728847413,
          0.00379542627779911
        ]
      }
    },
    {
      "type": "Feature",
      "properties": {
        "norad_id": 38740,
        "name": "INTELSAT 20 (IS-20)",
        "group": "intelsat",
        "lat": -0.003576165197746591,
        "lon": -94.90729137416386,
        "alt_km": 35784.35692730656,
        "timestamp": "2025-12-14T07:33:19.146036+00:00",
        "meta_object_name": "INTELSAT 20 (IS-20)",
        "meta_object_id": "2012-043A",
        "meta_epoch": "2025-12-13T15:29:16.549152",
        "meta_mean_motion": 1.00270625,
        "meta_eccentricity": 0.00031806,
        "meta_inclination": 0.0059,
        "meta_ra_of_asc_node": 73.5076,
        "meta_arg_of_pericenter": 110.142,
        "meta_mean_anomaly": 199.7483,
        "meta_ephemeris_type": 0,
        "meta_classification_type": "U",
        "meta_norad_cat_id": 38740,
        "meta_element_set_no": 999,
        "meta_rev_at_epoch": 4888,
        "meta_bstar": 0,
        "meta_mean_motion_dot": -9e-08,
        "meta_mean_motion_ddot": 0,
        "tle_line1": "1 38740U 12043A   25347.64533043 -.00000009  00000+0  00000+0 0  9999",
        "tle_line2": "2 38740   0.0059  73.5076 0003180 110.1420 199.7483  1.00270625 48889"
      },
      "geometry": {
        "type": "Point",
        "coordinates": [
          -94.90729137416386,
          -0.003576165197746591
        ]
      }
    },
    {
      "type": "Feature",
      "properties": {
        "norad_id": 38749,
        "name": "INTELSAT 21 (IS-21)",
        "group": "intelsat",
        "lat": 0.02606809354113508,
        "lon": 138.54336029702185,
        "alt_km": 35789.99571145854,
        "timestamp": "2025-12-14T07:33:19.146049+00:00",
        "meta_object_name": "INTELSAT 21 (IS-21)",
        "meta_object_id": "2012-045A",
        "meta_epoch": "2025-12-13T11:27:39.688416",
        "meta_mean_motion": 1.00272152,
        "meta_eccentricity": 0.00017689,
        "meta_inclination": 0.0288,
        "meta_ra_of_asc_node": 72.7632,
        "meta_arg_of_pericenter": 187.4215,
        "meta_mean_anomaly": 296.1447,
        "meta_ephemeris_type": 0,
        "meta_classification_type": "U",
        "meta_norad_cat_id": 38749,
        "meta_element_set_no": 999,
        "meta_rev_at_epoch": 4866,
        "meta_bstar": 0,
        "meta_mean_motion_dot": -2.7e-06,
        "meta_mean_motion_ddot": 0,
        "tle_line1": "1 38749U 12045A   25347.47754269 -.00000270  00000+0  00000+0 0  9996",
        "tle_line2": "2 38749   0.0288  72.7632 0001768 187.4215 296.1447  1.00272152 48665"
      },
      "geometry": {
        "type": "Point",
        "coordinates": [
          138.54336029702185,
          0.02606809354113508
        ]
      }
    }
  ]
}